[{"OBJECT_NAME":"OTTER","OBJECT_ID":"2025-009Q","EPOCH":"2026-03-09T17:21:07.902432","MEAN_MOTION":15.27809545,"ECCENTRICITY":0.00035728,"INCLINATION":97.4065,"RA_OF_ASC_NODE":151.3812,"ARG_OF_PERICENTER":310.771,"MEAN_ANOMALY":49.3219,"EPHEMERIS_TYPE":0,"CLASSIFICATION_TYPE":"U","NORAD_CAT_ID":62623,"ELEMENT_SET_NO":999,"REV_AT_EPOCH":6372,"BSTAR":0.00045151206,"MEAN_MOTION_DOT":0.00012198,"MEAN_MOTION_DDOT":0},{"OBJECT_NAME":"STARLINK-35875","OBJECT_ID":"2025-299K","EPOCH":"2026-03-09T22:00:01.999584","MEAN_MOTION":15.2843404,"ECCENTRICITY":0.00017779,"INCLINATION":43.0001,"RA_OF_ASC_NODE":167.5617,"ARG_OF_PERICENTER":289.1685,"MEAN_ANOMALY":36.838,"EPHEMERIS_TYPE":0,"CLASSIFICATION_TYPE":"U","NORAD_CAT_ID":67111,"ELEMENT_SET_NO":999,"REV_AT_EPOCH":590,"BSTAR":-0.00049262906,"MEAN_MOTION_DOT":-0.00014153,"MEAN_MOTION_DDOT":0}]
